YAOGAN-30 11A           
1 49026U 21065A   26068.71073618  .00004757  00000+0  35664-3 0  9999
2 49026  34.9929 159.1721 0004674 355.4238   4.6427 15.02110690253677
STARLINK-34966          
1 65257U 25179Y   26068.70983865  .00000382  00000+0  30657-4 0  9994
2 65257  97.6025 113.0202 0001747  95.7705 264.3721 15.05649029 31939
