[{"OBJECT_NAME":"YAOGAN-30 11A","OBJECT_ID":"2021-065A","EPOCH":"2026-03-09T17:03:27.605952","MEAN_MOTION":15.0211069,"ECCENTRICITY":0.00046738,"INCLINATION":34.9929,"RA_OF_ASC_NODE":159.1721,"ARG_OF_PERICENTER":355.4238,"MEAN_ANOMALY":4.6427,"EPHEMERIS_TYPE":0,"CLASSIFICATION_TYPE":"U","NORAD_CAT_ID":49026,"ELEMENT_SET_NO":999,"REV_AT_EPOCH":25367,"BSTAR":0.00035664483,"MEAN_MOTION_DOT":4.757e-5,"MEAN_MOTION_DDOT":0},{"OBJECT_NAME":"STARLINK-34966","OBJECT_ID":"2025-179Y","EPOCH":"2026-03-09T17:02:10.059360","MEAN_MOTION":15.0564903,"ECCENTRICITY":0.00017469,"INCLINATION":97.6025,"RA_OF_ASC_NODE":113.0202,"ARG_OF_PERICENTER":95.7705,"MEAN_ANOMALY":264.3721,"EPHEMERIS_TYPE":0,"CLASSIFICATION_TYPE":"U","NORAD_CAT_ID":65257,"ELEMENT_SET_NO":999,"REV_AT_EPOCH":3193,"BSTAR":3.0656634e-5,"MEAN_MOTION_DOT":3.82e-6,"MEAN_MOTION_DDOT":0}]
